CCSDS_OMM_VERS = 2.0
CREATION_DATE  = 
ORIGINATOR     = 

OBJECT_NAME    = COSMOS 1892
OBJECT_ID      = 1987-088A
CENTER_NAME    = EARTH
REF_FRAME      = TEME
TIME_SYSTEM    = UTC
MEAN_ELEMENT_THEORY = SGP/SGP4

EPOCH          = 2025-10-30T20:09:42.416064
MEAN_MOTION    = 15.91182475
ECCENTRICITY   = .00049309
INCLINATION    = 82.4693
RA_OF_ASC_NODE = 91.9901
ARG_OF_PERICENTER = 320.6031
MEAN_ANOMALY   = 39.4883

EPHEMERIS_TYPE = 0
CLASSIFICATION_TYPE = U
NORAD_CAT_ID   = 18421
ELEMENT_SET_NO = 999
REV_AT_EPOCH   = 8445
BSTAR          = .89211456E-3
MEAN_MOTION_DOT = .282045E-2
MEAN_MOTION_DDOT = .28014036E-4

CCSDS_OMM_VERS = 2.0
CREATION_DATE  = 
ORIGINATOR     = 

OBJECT_NAME    = SL-14 R/B
OBJECT_ID      = 1988-001B
CENTER_NAME    = EARTH
REF_FRAME      = TEME
TIME_SYSTEM    = UTC
MEAN_ELEMENT_THEORY = SGP/SGP4

EPOCH          = 2025-10-30T11:07:24.412800
MEAN_MOTION    = 14.85353918
ECCENTRICITY   = .00168747
INCLINATION    = 82.5113
RA_OF_ASC_NODE = 317.8612
ARG_OF_PERICENTER = 312.5794
MEAN_ANOMALY   = 47.3997

EPHEMERIS_TYPE = 0
CLASSIFICATION_TYPE = U
NORAD_CAT_ID   = 18749
ELEMENT_SET_NO = 999
REV_AT_EPOCH   = 2269
BSTAR          = .78090701E-4
MEAN_MOTION_DOT = .697E-5
MEAN_MOTION_DDOT = 0

CCSDS_OMM_VERS = 2.0
CREATION_DATE  = 
ORIGINATOR     = 

OBJECT_NAME    = COSMOS 1933
OBJECT_ID      = 1988-020A
CENTER_NAME    = EARTH
REF_FRAME      = TEME
TIME_SYSTEM    = UTC
MEAN_ELEMENT_THEORY = SGP/SGP4

EPOCH          = 2025-10-30T16:13:27.071328
MEAN_MOTION    = 15.16607696
ECCENTRICITY   = .00030934
INCLINATION    = 82.5170
RA_OF_ASC_NODE = 19.4069
ARG_OF_PERICENTER = 297.0166
MEAN_ANOMALY   = 63.0751

EPHEMERIS_TYPE = 0
CLASSIFICATION_TYPE = U
NORAD_CAT_ID   = 18958
ELEMENT_SET_NO = 999
REV_AT_EPOCH   = 3051
BSTAR          = .31270483E-3
MEAN_MOTION_DOT = .6138E-4
MEAN_MOTION_DDOT = 0

CCSDS_OMM_VERS = 2.0
CREATION_DATE  = 
ORIGINATOR     = 

OBJECT_NAME    = SL-3 R/B
OBJECT_ID      = 1988-032B
CENTER_NAME    = EARTH
REF_FRAME      = TEME
TIME_SYSTEM    = UTC
MEAN_ELEMENT_THEORY = SGP/SGP4

EPOCH          = 2025-10-30T18:18:32.552928
MEAN_MOTION    = 15.18069586
ECCENTRICITY   = .00260655
INCLINATION    = 97.5042
RA_OF_ASC_NODE = 282.8111
ARG_OF_PERICENTER = 330.6312
MEAN_ANOMALY   = 29.3455

EPHEMERIS_TYPE = 0
CLASSIFICATION_TYPE = U
NORAD_CAT_ID   = 19046
ELEMENT_SET_NO = 999
REV_AT_EPOCH   = 3238
BSTAR          = .43139237E-3
MEAN_MOTION_DOT = .88E-4
MEAN_MOTION_DDOT = 0

CCSDS_OMM_VERS = 2.0
CREATION_DATE  = 
ORIGINATOR     = 

OBJECT_NAME    = SL-16 R/B
OBJECT_ID      = 1988-039B
CENTER_NAME    = EARTH
REF_FRAME      = TEME
TIME_SYSTEM    = UTC
MEAN_ELEMENT_THEORY = SGP/SGP4

EPOCH          = 2025-10-30T13:15:38.647296
MEAN_MOTION    = 14.19586081
ECCENTRICITY   = .00219578
INCLINATION    = 71.0158
RA_OF_ASC_NODE = 343.7170
ARG_OF_PERICENTER = 185.9265
MEAN_ANOMALY   = 174.1604

EPHEMERIS_TYPE = 0
CLASSIFICATION_TYPE = U
NORAD_CAT_ID   = 19120
ELEMENT_SET_NO = 999
REV_AT_EPOCH   = 93991
BSTAR          = .1941672E-5
MEAN_MOTION_DOT = -.44E-6
MEAN_MOTION_DDOT = 0

CCSDS_OMM_VERS = 2.0
CREATION_DATE  = 
ORIGINATOR     = 

OBJECT_NAME    = COSMOS 1953
OBJECT_ID      = 1988-050A
CENTER_NAME    = EARTH
REF_FRAME      = TEME
TIME_SYSTEM    = UTC
MEAN_ELEMENT_THEORY = SGP/SGP4

EPOCH          = 2025-10-30T20:03:52.605792
MEAN_MOTION    = 15.26249059
ECCENTRICITY   = .00107051
INCLINATION    = 82.5065
RA_OF_ASC_NODE = 288.6149
ARG_OF_PERICENTER = 212.0376
MEAN_ANOMALY   = 148.0213

EPHEMERIS_TYPE = 0
CLASSIFICATION_TYPE = U
NORAD_CAT_ID   = 19210
ELEMENT_SET_NO = 999
REV_AT_EPOCH   = 1796
BSTAR          = .34832719E-3
MEAN_MOTION_DOT = .9069E-4
MEAN_MOTION_DDOT = 0

CCSDS_OMM_VERS = 2.0
CREATION_DATE  = 
ORIGINATOR     = 

OBJECT_NAME    = SL-8 R/B
OBJECT_ID      = 1988-053B
CENTER_NAME    = EARTH
REF_FRAME      = TEME
TIME_SYSTEM    = UTC
MEAN_ELEMENT_THEORY = SGP/SGP4

EPOCH          = 2025-10-30T12:15:03.606624
MEAN_MOTION    = 14.38820019
ECCENTRICITY   = .00206115
INCLINATION    = 74.0488
RA_OF_ASC_NODE = 352.3953
ARG_OF_PERICENTER = 208.7062
MEAN_ANOMALY   = 255.9099

EPHEMERIS_TYPE = 0
CLASSIFICATION_TYPE = U
NORAD_CAT_ID   = 19257
ELEMENT_SET_NO = 999
REV_AT_EPOCH   = 95787
BSTAR          = .12720644E-3
MEAN_MOTION_DOT = .366E-5
MEAN_MOTION_DDOT = 0

CCSDS_OMM_VERS = 2.0
CREATION_DATE  = 
ORIGINATOR     = 

OBJECT_NAME    = COSMOS 1975
OBJECT_ID      = 1988-093A
CENTER_NAME    = EARTH
REF_FRAME      = TEME
TIME_SYSTEM    = UTC
MEAN_ELEMENT_THEORY = SGP/SGP4

EPOCH          = 2025-10-30T19:55:24.381984
MEAN_MOTION    = 15.25441993
ECCENTRICITY   = .000934
INCLINATION    = 82.5199
RA_OF_ASC_NODE = 247.7483
ARG_OF_PERICENTER = 270.5189
MEAN_ANOMALY   = 89.4979

EPHEMERIS_TYPE = 0
CLASSIFICATION_TYPE = U
NORAD_CAT_ID   = 19573
ELEMENT_SET_NO = 999
REV_AT_EPOCH   = 99958
BSTAR          = .59156276E-3
MEAN_MOTION_DOT = .15015E-3
MEAN_MOTION_DDOT = 0

CCSDS_OMM_VERS = 2.0
CREATION_DATE  = 
ORIGINATOR     = 

OBJECT_NAME    = SL-14 R/B
OBJECT_ID      = 1988-093B
CENTER_NAME    = EARTH
REF_FRAME      = TEME
TIME_SYSTEM    = UTC
MEAN_ELEMENT_THEORY = SGP/SGP4

EPOCH          = 2025-10-30T03:17:57.386400
MEAN_MOTION    = 14.85484025
ECCENTRICITY   = .00222177
INCLINATION    = 82.5317
RA_OF_ASC_NODE = 164.5836
ARG_OF_PERICENTER = 108.6060
MEAN_ANOMALY   = 9.0200

EPHEMERIS_TYPE = 0
CLASSIFICATION_TYPE = U
NORAD_CAT_ID   = 19574
ELEMENT_SET_NO = 999
REV_AT_EPOCH   = 98165
BSTAR          = .64466508E-4
MEAN_MOTION_DOT = .583E-5
MEAN_MOTION_DDOT = 0

CCSDS_OMM_VERS = 2.0
CREATION_DATE  = 
ORIGINATOR     = 

OBJECT_NAME    = SL-16 R/B
OBJECT_ID      = 1988-102B
CENTER_NAME    = EARTH
REF_FRAME      = TEME
TIME_SYSTEM    = UTC
MEAN_ELEMENT_THEORY = SGP/SGP4

EPOCH          = 2025-10-30T17:22:06.745152
MEAN_MOTION    = 14.16129719
ECCENTRICITY   = .00154494
INCLINATION    = 71.0001
RA_OF_ASC_NODE = 64.9491
ARG_OF_PERICENTER = 216.3498
MEAN_ANOMALY   = 143.6577

EPHEMERIS_TYPE = 0
CLASSIFICATION_TYPE = U
NORAD_CAT_ID   = 19650
ELEMENT_SET_NO = 999
REV_AT_EPOCH   = 90849
BSTAR          = .13579237E-3
MEAN_MOTION_DOT = .221E-5
MEAN_MOTION_DDOT = 0

CCSDS_OMM_VERS = 2.0
CREATION_DATE  = 
ORIGINATOR     = 

OBJECT_NAME    = INTERCOSMOS 24
OBJECT_ID      = 1989-080A
CENTER_NAME    = EARTH
REF_FRAME      = TEME
TIME_SYSTEM    = UTC
MEAN_ELEMENT_THEORY = SGP/SGP4

EPOCH          = 2025-10-30T16:20:08.074464
MEAN_MOTION    = 12.59347330
ECCENTRICITY   = .11876055
INCLINATION    = 82.6097
RA_OF_ASC_NODE = 188.9512
ARG_OF_PERICENTER = 234.4342
MEAN_ANOMALY   = 114.0348

EPHEMERIS_TYPE = 0
CLASSIFICATION_TYPE = U
NORAD_CAT_ID   = 20261
ELEMENT_SET_NO = 999
REV_AT_EPOCH   = 65043
BSTAR          = .18948672E-3
MEAN_MOTION_DOT = .64E-5
MEAN_MOTION_DDOT = 0

CCSDS_OMM_VERS = 2.0
CREATION_DATE  = 
ORIGINATOR     = 

OBJECT_NAME    = SL-14 R/B
OBJECT_ID      = 1989-080C
CENTER_NAME    = EARTH
REF_FRAME      = TEME
TIME_SYSTEM    = UTC
MEAN_ELEMENT_THEORY = SGP/SGP4

EPOCH          = 2025-10-30T22:30:08.134560
MEAN_MOTION    = 12.50370038
ECCENTRICITY   = .12315059
INCLINATION    = 82.5910
RA_OF_ASC_NODE = 256.4891
ARG_OF_PERICENTER = 121.3494
MEAN_ANOMALY   = 251.4044

EPHEMERIS_TYPE = 0
CLASSIFICATION_TYPE = U
NORAD_CAT_ID   = 20262
ELEMENT_SET_NO = 999
REV_AT_EPOCH   = 64393
BSTAR          = .97665157E-4
MEAN_MOTION_DOT = .355E-5
MEAN_MOTION_DDOT = 0

