COSMOS 1892             
1 18421U 87088A   25303.84007426  .00282045  28014-4  89211-3 0  9995
2 18421  82.4693  91.9901 0004930 320.6031  39.4883 15.91182475 84459
SL-14 R/B               
1 18749U 88001B   25303.46347700  .00000697  00000+0  78091-4 0  9990
2 18749  82.5113 317.8612 0016874 312.5794  47.3997 14.85353918 22691
COSMOS 1933             
1 18958U 88020A   25303.67600777  .00006138  00000+0  31270-3 0  9995
2 18958  82.5170  19.4069 0003093 297.0166  63.0751 15.16607696 30519
SL-3 R/B                
1 19046U 88032B   25303.76287677  .00008800  00000+0  43139-3 0  9992
2 19046  97.5042 282.8111 0026065 330.6312  29.3455 15.18069586 32382
SL-16 R/B               
1 19120U 88039B   25303.55253064 -.00000044  00000+0  19417-5 0  9999
2 19120  71.0158 343.7170 0021957 185.9265 174.1604 14.19586081939919
COSMOS 1953             
1 19210U 88050A   25303.83602553  .00009069  00000+0  34833-3 0  9996
2 19210  82.5065 288.6149 0010705 212.0376 148.0213 15.26249059 17968
SL-8 R/B                
1 19257U 88053B   25303.51045841  .00000366  00000+0  12721-3 0  9999
2 19257  74.0488 352.3953 0020611 208.7062 255.9099 14.38820019957873
COSMOS 1975             
1 19573U 88093A   25303.83014331  .00015015  00000+0  59156-3 0  9999
2 19573  82.5199 247.7483 0009340 270.5189  89.4979 15.25441993999583
SL-14 R/B               
1 19574U 88093B   25303.13746975  .00000583  00000+0  64467-4 0  9995
2 19574  82.5317 164.5836 0022217 108.6060   9.0200 14.85484025981653
SL-16 R/B               
1 19650U 88102B   25303.72368918  .00000221  00000+0  13579-3 0  9999
2 19650  71.0001  64.9491 0015449 216.3498 143.6577 14.16129719908495
INTERCOSMOS 24          
1 20261U 89080A   25303.68064901  .00000640  00000+0  18949-3 0  9996
2 20261  82.6097 188.9512 1187605 234.4342 114.0348 12.59347330650435
SL-14 R/B               
1 20262U 89080C   25303.93759415  .00000355  00000+0  97665-4 0  9992
2 20262  82.5910 256.4891 1231505 121.3494 251.4044 12.50370038643939
